STARLINK-37178          
1 68526C 26068U   26121.35326389 -.02160700  00000+0 -48472-1 0  1210
2 68526  53.1607 246.2296 0001048  73.4700   9.4935 15.43901965    10
STARLINK-37248          
1 68527C 26068V   26121.33798611 -.00005982  00000+0 -30265-4 0  1212
2 68527  53.1560 245.3059 0001250 122.1038   6.7877 15.80860734    11
STARLINK-37241          
1 68528C 26068W   26121.33104167 -.02083200  00000+0 -27868-1 0  1213
2 68528  53.1603 245.7629 0001086  92.5414 149.3151 15.58445001    12
STARLINK-37244          
1 68529C 26068X   26121.32756944  .00011565  00000+0  20748-3 0  1212
2 68529  53.1598 246.3147 0001230  64.0046 254.2591 15.49306950    17
STARLINK-36285          
1 68530C 26068Y   26121.33381944 -.02086000  00000+0 -29207-1 0  1216
2 68530  53.1602 245.7894 0001140  96.0955 141.6224 15.57223420    12
STARLINK-36294          
1 68531C 26068Z   26121.29701389 -.02051800  00000+0 -29879-1 0  1216
2 68531  53.1600 246.0095 0000837  75.0070 295.4284 15.56141996    15
STARLINK-36249          
1 68532C 26068AA  26121.31090278  .00027995  00000+0  50227-3 0  1215
2 68532  53.1597 246.3527 0001152  94.5855 150.5180 15.49298001    10
STARLINK-36252          
1 68533C 26068AB  26121.31229167 -.02350100  00000+0 -37464-1 0  1214
2 68533  53.1601 245.9322 0001052  71.5510  25.9161 15.53808350    10
STARLINK-36299          
1 68534C 26068AC  26121.32479167  .00021214  00000+0  38048-3 0  1211
2 68534  53.1600 246.0679 0001212  65.5315   5.0425 15.49310240    14
STARLINK-37234          
1 68535C 26068AD  26121.30187500 -.02366800  00000+0 -49956-1 0  1212
2 68535  53.1602 246.2956 0001140  91.0800 152.7078 15.45807356    19
STARLINK-37173          
1 68536C 26068AE  26121.33173611  .00086530  00000+0  19835-2 0  1213
2 68536  53.1608 246.3862 0001534  54.4717 240.6310 15.42130339    13
STARLINK-37326          
1 68542C 26070A   26121.34840278 -.02740100  00000+0 -19361-1 0  1211
2 68542  53.1593 120.5061 0001226 103.4417 194.1276 15.74726945    10
STARLINK-36308          
1 68543C 26070B   26121.31645833 -.02883600  00000+0 -21006-1 0  1211
2 68543  53.1593 120.6613 0001384  74.6515  43.1105 15.74085195    17
STARLINK-37263          
1 68544C 26070C   26121.31229167 -.02878000  00000+0 -26348-1 0  1212
2 68544  53.1593 120.7326 0001188  65.1836   3.8635 15.68584892    15
STARLINK-37289          
1 68545C 26070D   26121.29840278 -.02119300  00000+0 -19975-1 0  1211
2 68545  53.1592 120.8703 0001192  81.5643 235.1419 15.67480910    13
STARLINK-37290          
1 68546C 26070E   26121.33104167 -.00202160  00000+0 -10236-2 0  1214
2 68546  53.1561 120.5333 0000984  82.1614 146.1389 15.80943910    15
STARLINK-37245          
1 68547C 26070F   26121.34354167 -.02836800  00000+0 -23181-1 0  1211
2 68547  53.1595 120.5109 0001161  97.0712 181.7901 15.71332328    16
STARLINK-37145          
1 68548C 26070G   26121.32687500 -.02879200  00000+0 -25465-1 0  1218
2 68548  53.1594 120.6277 0001518  84.1433  83.4729 15.69432665    14
STARLINK-36204          
1 68549C 26070H   26121.29354167 -.02832800  00000+0 -26019-1 0  1216
2 68549  53.1593 120.7946 0000921  83.0465 254.6271 15.68481321    14
STARLINK-36304          
1 68550C 26070J   26121.32201389 -.02844800  00000+0 -26429-1 0  1217
2 68550  53.1594 120.6365 0001445  79.8837  67.3259 15.68204843    16
STARLINK-37288          
1 68551C 26070K   26121.30534722 -.02878200  00000+0 -26315-1 0  1211
2 68551  53.1594 120.7050 0001101  67.9393 351.5658 15.68617483    12
STARLINK-37295          
1 68552C 26070L   26121.34284722 -.02837400  00000+0 -27698-1 0  1210
2 68552  53.1593 120.5633 0001295  92.5834 158.2164 15.66970875    14
STARLINK-37254          
1 68553C 26070M   26121.30534722 -.02862100  00000+0 -22894-1 0  1213
2 68553  53.1595 120.6422 0001237  72.9274  17.2230 15.71856329    11
STARLINK-37255          
1 68554C 26070N   26121.29979167 -.02861600  00000+0 -27355-1 0  1219
2 68554  53.1594 120.7249 0001000  81.7717 309.6799 15.67506126    17
STARLINK-37146          
1 68555C 26070P   26121.31020833 -.02862600  00000+0 -18355-1 0  1211
2 68555  53.1592 120.5842 0001110  81.4624  53.2988 15.77030050    10
STARLINK-37144          
1 68556C 26070Q   26121.34354167 -.00640500  00000+0 -32527-2 0  1214
2 68556  53.1567 120.3733 0000762  70.7867 275.5870 15.81098207    14
STARLINK-37210          
1 68557C 26070R   26121.32062500 -.03030700  00000+0 -20633-1 0  1212
2 68557  53.1596 120.5146 0001644 109.0227  93.7313 15.75736942    13
STARLINK-37227          
1 68558C 26070S   26121.33937500 -.02877200  00000+0 -27193-1 0  1216
2 68558  53.1596 120.4939 0001282  97.3250 175.4381 15.67796628    17
STARLINK-37294          
1 68559C 26070T   26121.33173611 -.02897500  00000+0 -27280-1 0  1214
2 68559  53.1596 120.5210 0001360  93.9349 140.7211 15.67902206    17
STARLINK-37291          
1 68560C 26070U   26121.29701389 -.02861000  00000+0 -26662-1 0  1219
2 68560  53.1596 120.6839 0001074  78.2581 323.9580 15.68137075    12
STARLINK-37114          
1 68561C 26070V   26121.28868056 -.02896400  00000+0 -22749-1 0  1218
2 68561  53.1596 120.6584 0000991  82.8808 304.9074 15.72311649    13
STARLINK-37233          
1 68562C 26070W   26121.31298611 -.00078733  00000+0 -39833-3 0  1210
2 68562  53.1564 120.4735 0001130  70.4838 127.5634 15.80898501    14
STARLINK-36238          
1 68563C 26070X   26121.29006944 -.02854100  00000+0 -23401-1 0  1218
2 68563  53.1596 120.6558 0000935  84.6764 308.7532 15.71258973    15
STARLINK-37008          
1 68564C 26070Y   26121.32270833  .00086819  00000+0  43970-3 0  1218
2 68564  53.1567 120.4161 0002155  75.2622 182.4429 15.80790488    11
STARLINK-37161          
1 68565C 26070Z   26121.30465278 -.00063289  00000+0 -32025-3 0  1213
2 68565  53.1563 120.4973 0001721  98.1137  61.0321 15.80885467    17
STARLINK-37212          
1 68566C 26070AA  26121.32618056 -.02810600  00000+0 -18519-1 0  1219
2 68566  53.1596 120.3922 0000807  83.1833 196.2796 15.76379988    16
STARLINK-37261          
1 68567C 26070AB  26121.33243056  .00130880  00000+0  66074-3 0  1217
2 68567  53.1562 120.3403 0001602  84.5082 241.2592 15.80839266    19
STARLINK-37283          
1 68568C 26070AC  26121.33243056 -.00023303  00000+0 -11785-3 0  1210
2 68568  53.1561 120.7597 0001088  99.5140  23.7156 15.80879842    19
STARLINK-37256          
1 68569C 26070AD  26121.28798611 -.02809300  00000+0 -21653-1 0  1211
2 68569  53.1593 121.0343 0001439  88.1985 115.9783 15.72714009    13
STARLINK-37228          
1 68570C 26070AE  26121.32409722 -.02841700  00000+0 -20153-1 0  1214
2 68570  53.1592 120.8165 0000975  85.0510 342.8230 15.74692322    10
STARLINK-37135          
1 68602C 26073A   26121.32479167 -.00031582  00000+0 -21246-3 0  1216
2 68602  97.2837 319.6441 0001636  89.6781 102.0315 15.75174037    16
STARLINK-37189          
1 68603C 26073B   26121.32201389 -.00014641  00000+0 -98480-4 0  1218
2 68603  97.2827 319.7098 0001411  85.2348 252.7104 15.75170522    11
STARLINK-37130          
1 68604C 26073C   26121.28937500 -.00061236  00000+0 -41175-3 0  1215
2 68604  97.2837 319.6303 0001041 102.9133 306.0770 15.75202403    15
STARLINK-37131          
1 68605C 26073D   26121.32965278 -.00055049  00000+0 -37017-3 0  1219
2 68605  97.2829 319.7123 0001304  75.3358 293.8999 15.75197240    10
STARLINK-37253          
1 68606C 26073E   26121.29215278 -.00013475  00000+0 -90637-4 0  1219
2 68606  97.2828 319.7071 0001663  85.5450 149.1793 15.75168202    17
STARLINK-37246          
1 68607C 26073F   26121.34354167  .00002988  00000+0  20087-4 0  1214
2 68607  97.2835 319.6731 0001499  84.4252 237.5322 15.75169849    11
STARLINK-37243          
1 68608C 26073G   26121.30048611  .00036312  00000+0  19008-3 0  1213
2 68608  97.2830 319.7519 0001654  91.6102 274.3962 15.80783239    19
STARLINK-37250          
1 68609C 26073H   26121.31576389 -.00022247  00000+0 -14966-3 0  1215
2 68609  97.2836 319.7535 0001389  86.3677 332.1497 15.75170624    15
STARLINK-37105          
1 68610C 26073J   26121.32409722  .00033442  00000+0  22488-3 0  1219
2 68610  97.2832 319.6824 0001640  86.4087 195.3560 15.75151695    16
STARLINK-37177          
1 68611C 26073K   26121.35118056  .00012712  00000+0  85488-4 0  1217
2 68611  97.2838 319.7975 0001215 101.6360 173.5759 15.75160517    14
STARLINK-36386          
1 68612C 26073L   26121.29701389 -.00007668  00000+0 -51550-4 0  1217
2 68612  97.2839 319.7450 0001200  92.4281 247.8172 15.75177660    18
STARLINK-36187          
1 68613C 26073M   26121.33451389 -.00040548  00000+0 -21224-3 0  1213
2 68613  97.2834 319.7960 0001534  83.5694 137.3229 15.80824480    10
STARLINK-37170          
1 68614C 26073N   26121.30534722 -.00020697  00000+0 -13926-3 0  1217
2 68614  97.2827 319.7102 0001369  96.9109 190.5867 15.75166501    12
STARLINK-37176          
1 68615C 26073P   26121.33173611 -.00015759  00000+0 -10600-3 0  1216
2 68615  97.2830 319.7521 0001426  76.7616  34.2732 15.75169451    17
STARLINK-37152          
1 68616C 26073Q   26121.33173611  .00030815  00000+0  20720-3 0  1219
2 68616  97.2832 319.7080 0001530  86.6221 282.4229 15.75154454    13
STARLINK-37186          
1 68617C 26073R   26121.33798611  .00106270  00000+0  71517-3 0  1212
2 68617  97.2842 319.8008 0001547  83.0871 161.3490 15.75096246    15
STARLINK-37179          
1 68618C 26073S   26121.33937500  .00010490  00000+0  70579-4 0  1211
2 68618  97.2828 319.7497 0002546  96.4751  33.8606 15.75148286    10
STARLINK-37226          
1 68619C 26073T   26121.30743056  .00007185  00000+0  48334-4 0  1211
2 68619  97.2829 319.7031 0001380  88.6814 190.6253 15.75157702    17
STARLINK-37211          
1 68620C 26073U   26121.32965278  .00004999  00000+0  33620-4 0  1219
2 68620  97.2830 319.7548 0001605  98.1469  13.0793 15.75162699    14
